IRIDIUM 171             
1 43929U 19002H   24189.82480279  .00000056  00000+0  12940-4 0  9993
2 43929  86.3977 290.2421 0002279  89.1836 270.9621 14.34218219287283
IRIDIUM 170             
1 43930U 19002J   24189.78623047  .00001418  00000+0  22109-3 0  9992
2 43930  86.6096 290.0745 0002326  94.5504 265.5978 14.72237910294882
IRIDIUM 167             
1 43931U 19002K   24189.33007691  .00000039  00000+0  69311-5 0  9991
2 43931  86.3967 290.2368 0002275  93.3157 266.8299 14.34215907287213
IRIDIUM 181             
1 56726U 23068S   24189.83274369  .00000537  00000+0  15295-3 0  9990
2 56726  86.8649 344.7625 0002474  91.8544 268.2941 14.43584854 60114
IRIDIUM 177             
1 56727U 23068T   24189.84376175  .00002107  00000+0  27386-3 0  9999
2 56727  86.1987 305.5517 0002424  84.7693 275.3805 14.80218347 61435
IRIDIUM 174             
1 56728U 23068U   24189.83832399  .00002078  00000+0  27000-3 0  9994
2 56728  86.1993 305.6596 0002371  93.6339 266.5153 14.80219455 61437
IRIDIUM 178             
1 56729U 23068V   24189.42727996  .00001863  00000+0  24182-3 0  9995
2 56729  86.5796 324.2789 0002247 100.3446 259.8029 14.80215754 61379
IRIDIUM 179             
1 56730U 23068W   24189.42183853  .00001838  00000+0  23860-3 0  9999
2 56730  86.6805 328.6705 0002430  98.3320 261.8177 14.80211550 61377
