<?xml version="1.0" encoding="UTF-8"?>
<ndm xmlns:xsi="http://www.w3.org/2001/XMLSchema-instance" xsi:noNamespaceSchemaLocation="https://sanaregistry.org/r/ndmxml_unqualified/ndmxml-2.0.0-master-2.0.xsd">
<omm id="CCSDS_OMM_VERS" version="2.0">
<header><CREATION_DATE/><ORIGINATOR/></header><body><segment><metadata><OBJECT_NAME>IRIDIUM 171</OBJECT_NAME><OBJECT_ID>2019-002H</OBJECT_ID><CENTER_NAME>EARTH</CENTER_NAME><REF_FRAME>TEME</REF_FRAME><TIME_SYSTEM>UTC</TIME_SYSTEM><MEAN_ELEMENT_THEORY>SGP4</MEAN_ELEMENT_THEORY></metadata><data><meanElements><EPOCH>2024-07-07T19:47:42.961056</EPOCH><MEAN_MOTION>14.34218219</MEAN_MOTION><ECCENTRICITY>.0002279</ECCENTRICITY><INCLINATION>86.3977</INCLINATION><RA_OF_ASC_NODE>290.2421</RA_OF_ASC_NODE><ARG_OF_PERICENTER>89.1836</ARG_OF_PERICENTER><MEAN_ANOMALY>270.9621</MEAN_ANOMALY></meanElements><tleParameters><EPHEMERIS_TYPE>0</EPHEMERIS_TYPE><CLASSIFICATION_TYPE>U</CLASSIFICATION_TYPE><NORAD_CAT_ID>43929</NORAD_CAT_ID><ELEMENT_SET_NO>999</ELEMENT_SET_NO><REV_AT_EPOCH>28728</REV_AT_EPOCH><BSTAR>.1294E-4</BSTAR><MEAN_MOTION_DOT>.56E-6</MEAN_MOTION_DOT><MEAN_MOTION_DDOT>0</MEAN_MOTION_DDOT></tleParameters></data></segment></body></omm>
<omm id="CCSDS_OMM_VERS" version="2.0">
<header><CREATION_DATE/><ORIGINATOR/></header><body><segment><metadata><OBJECT_NAME>IRIDIUM 170</OBJECT_NAME><OBJECT_ID>2019-002J</OBJECT_ID><CENTER_NAME>EARTH</CENTER_NAME><REF_FRAME>TEME</REF_FRAME><TIME_SYSTEM>UTC</TIME_SYSTEM><MEAN_ELEMENT_THEORY>SGP4</MEAN_ELEMENT_THEORY></metadata><data><meanElements><EPOCH>2024-07-07T18:52:10.312608</EPOCH><MEAN_MOTION>14.72237910</MEAN_MOTION><ECCENTRICITY>.0002326</ECCENTRICITY><INCLINATION>86.6096</INCLINATION><RA_OF_ASC_NODE>290.0745</RA_OF_ASC_NODE><ARG_OF_PERICENTER>94.5504</ARG_OF_PERICENTER><MEAN_ANOMALY>265.5978</MEAN_ANOMALY></meanElements><tleParameters><EPHEMERIS_TYPE>0</EPHEMERIS_TYPE><CLASSIFICATION_TYPE>U</CLASSIFICATION_TYPE><NORAD_CAT_ID>43930</NORAD_CAT_ID><ELEMENT_SET_NO>999</ELEMENT_SET_NO><REV_AT_EPOCH>29488</REV_AT_EPOCH><BSTAR>.22109E-3</BSTAR><MEAN_MOTION_DOT>.1418E-4</MEAN_MOTION_DOT><MEAN_MOTION_DDOT>0</MEAN_MOTION_DDOT></tleParameters></data></segment></body></omm>
<omm id="CCSDS_OMM_VERS" version="2.0">
<header><CREATION_DATE/><ORIGINATOR/></header><body><segment><metadata><OBJECT_NAME>IRIDIUM 167</OBJECT_NAME><OBJECT_ID>2019-002K</OBJECT_ID><CENTER_NAME>EARTH</CENTER_NAME><REF_FRAME>TEME</REF_FRAME><TIME_SYSTEM>UTC</TIME_SYSTEM><MEAN_ELEMENT_THEORY>SGP4</MEAN_ELEMENT_THEORY></metadata><data><meanElements><EPOCH>2024-07-07T07:55:18.645024</EPOCH><MEAN_MOTION>14.34215907</MEAN_MOTION><ECCENTRICITY>.0002275</ECCENTRICITY><INCLINATION>86.3967</INCLINATION><RA_OF_ASC_NODE>290.2368</RA_OF_ASC_NODE><ARG_OF_PERICENTER>93.3157</ARG_OF_PERICENTER><MEAN_ANOMALY>266.8299</MEAN_ANOMALY></meanElements><tleParameters><EPHEMERIS_TYPE>0</EPHEMERIS_TYPE><CLASSIFICATION_TYPE>U</CLASSIFICATION_TYPE><NORAD_CAT_ID>43931</NORAD_CAT_ID><ELEMENT_SET_NO>999</ELEMENT_SET_NO><REV_AT_EPOCH>28721</REV_AT_EPOCH><BSTAR>.69311E-5</BSTAR><MEAN_MOTION_DOT>.39E-6</MEAN_MOTION_DOT><MEAN_MOTION_DDOT>0</MEAN_MOTION_DDOT></tleParameters></data></segment></body></omm>
<omm id="CCSDS_OMM_VERS" version="2.0">
<header><CREATION_DATE/><ORIGINATOR/></header><body><segment><metadata><OBJECT_NAME>IRIDIUM 181</OBJECT_NAME><OBJECT_ID>2023-068S</OBJECT_ID><CENTER_NAME>EARTH</CENTER_NAME><REF_FRAME>TEME</REF_FRAME><TIME_SYSTEM>UTC</TIME_SYSTEM><MEAN_ELEMENT_THEORY>SGP4</MEAN_ELEMENT_THEORY></metadata><data><meanElements><EPOCH>2024-07-07T19:59:09.054816</EPOCH><MEAN_MOTION>14.43584854</MEAN_MOTION><ECCENTRICITY>.0002474</ECCENTRICITY><INCLINATION>86.8649</INCLINATION><RA_OF_ASC_NODE>344.7625</RA_OF_ASC_NODE><ARG_OF_PERICENTER>91.8544</ARG_OF_PERICENTER><MEAN_ANOMALY>268.2941</MEAN_ANOMALY></meanElements><tleParameters><EPHEMERIS_TYPE>0</EPHEMERIS_TYPE><CLASSIFICATION_TYPE>U</CLASSIFICATION_TYPE><NORAD_CAT_ID>56726</NORAD_CAT_ID><ELEMENT_SET_NO>999</ELEMENT_SET_NO><REV_AT_EPOCH>6011</REV_AT_EPOCH><BSTAR>.15295E-3</BSTAR><MEAN_MOTION_DOT>.537E-5</MEAN_MOTION_DOT><MEAN_MOTION_DDOT>0</MEAN_MOTION_DDOT></tleParameters></data></segment></body></omm>
<omm id="CCSDS_OMM_VERS" version="2.0">
<header><CREATION_DATE/><ORIGINATOR/></header><body><segment><metadata><OBJECT_NAME>IRIDIUM 177</OBJECT_NAME><OBJECT_ID>2023-068T</OBJECT_ID><CENTER_NAME>EARTH</CENTER_NAME><REF_FRAME>TEME</REF_FRAME><TIME_SYSTEM>UTC</TIME_SYSTEM><MEAN_ELEMENT_THEORY>SGP4</MEAN_ELEMENT_THEORY></metadata><data><meanElements><EPOCH>2024-07-07T20:15:01.015200</EPOCH><MEAN_MOTION>14.80218347</MEAN_MOTION><ECCENTRICITY>.0002424</ECCENTRICITY><INCLINATION>86.1987</INCLINATION><RA_OF_ASC_NODE>305.5517</RA_OF_ASC_NODE><ARG_OF_PERICENTER>84.7693</ARG_OF_PERICENTER><MEAN_ANOMALY>275.3805</MEAN_ANOMALY></meanElements><tleParameters><EPHEMERIS_TYPE>0</EPHEMERIS_TYPE><CLASSIFICATION_TYPE>U</CLASSIFICATION_TYPE><NORAD_CAT_ID>56727</NORAD_CAT_ID><ELEMENT_SET_NO>999</ELEMENT_SET_NO><REV_AT_EPOCH>6143</REV_AT_EPOCH><BSTAR>.27386E-3</BSTAR><MEAN_MOTION_DOT>.2107E-4</MEAN_MOTION_DOT><MEAN_MOTION_DDOT>0</MEAN_MOTION_DDOT></tleParameters></data></segment></body></omm>
<omm id="CCSDS_OMM_VERS" version="2.0">
<header><CREATION_DATE/><ORIGINATOR/></header><body><segment><metadata><OBJECT_NAME>IRIDIUM 174</OBJECT_NAME><OBJECT_ID>2023-068U</OBJECT_ID><CENTER_NAME>EARTH</CENTER_NAME><REF_FRAME>TEME</REF_FRAME><TIME_SYSTEM>UTC</TIME_SYSTEM><MEAN_ELEMENT_THEORY>SGP4</MEAN_ELEMENT_THEORY></metadata><data><meanElements><EPOCH>2024-07-07T20:07:11.192736</EPOCH><MEAN_MOTION>14.80219455</MEAN_MOTION><ECCENTRICITY>.0002371</ECCENTRICITY><INCLINATION>86.1993</INCLINATION><RA_OF_ASC_NODE>305.6596</RA_OF_ASC_NODE><ARG_OF_PERICENTER>93.6339</ARG_OF_PERICENTER><MEAN_ANOMALY>266.5153</MEAN_ANOMALY></meanElements><tleParameters><EPHEMERIS_TYPE>0</EPHEMERIS_TYPE><CLASSIFICATION_TYPE>U</CLASSIFICATION_TYPE><NORAD_CAT_ID>56728</NORAD_CAT_ID><ELEMENT_SET_NO>999</ELEMENT_SET_NO><REV_AT_EPOCH>6143</REV_AT_EPOCH><BSTAR>.27E-3</BSTAR><MEAN_MOTION_DOT>.2078E-4</MEAN_MOTION_DOT><MEAN_MOTION_DDOT>0</MEAN_MOTION_DDOT></tleParameters></data></segment></body></omm>
<omm id="CCSDS_OMM_VERS" version="2.0">
<header><CREATION_DATE/><ORIGINATOR/></header><body><segment><metadata><OBJECT_NAME>IRIDIUM 178</OBJECT_NAME><OBJECT_ID>2023-068V</OBJECT_ID><CENTER_NAME>EARTH</CENTER_NAME><REF_FRAME>TEME</REF_FRAME><TIME_SYSTEM>UTC</TIME_SYSTEM><MEAN_ELEMENT_THEORY>SGP4</MEAN_ELEMENT_THEORY></metadata><data><meanElements><EPOCH>2024-07-07T10:15:16.988544</EPOCH><MEAN_MOTION>14.80215754</MEAN_MOTION><ECCENTRICITY>.0002247</ECCENTRICITY><INCLINATION>86.5796</INCLINATION><RA_OF_ASC_NODE>324.2789</RA_OF_ASC_NODE><ARG_OF_PERICENTER>100.3446</ARG_OF_PERICENTER><MEAN_ANOMALY>259.8029</MEAN_ANOMALY></meanElements><tleParameters><EPHEMERIS_TYPE>0</EPHEMERIS_TYPE><CLASSIFICATION_TYPE>U</CLASSIFICATION_TYPE><NORAD_CAT_ID>56729</NORAD_CAT_ID><ELEMENT_SET_NO>999</ELEMENT_SET_NO><REV_AT_EPOCH>6137</REV_AT_EPOCH><BSTAR>.24182E-3</BSTAR><MEAN_MOTION_DOT>.1863E-4</MEAN_MOTION_DOT><MEAN_MOTION_DDOT>0</MEAN_MOTION_DDOT></tleParameters></data></segment></body></omm>
<omm id="CCSDS_OMM_VERS" version="2.0">
<header><CREATION_DATE/><ORIGINATOR/></header><body><segment><metadata><OBJECT_NAME>IRIDIUM 179</OBJECT_NAME><OBJECT_ID>2023-068W</OBJECT_ID><CENTER_NAME>EARTH</CENTER_NAME><REF_FRAME>TEME</REF_FRAME><TIME_SYSTEM>UTC</TIME_SYSTEM><MEAN_ELEMENT_THEORY>SGP4</MEAN_ELEMENT_THEORY></metadata><data><meanElements><EPOCH>2024-07-07T10:07:26.848992</EPOCH><MEAN_MOTION>14.80211550</MEAN_MOTION><ECCENTRICITY>.000243</ECCENTRICITY><INCLINATION>86.6805</INCLINATION><RA_OF_ASC_NODE>328.6705</RA_OF_ASC_NODE><ARG_OF_PERICENTER>98.3320</ARG_OF_PERICENTER><MEAN_ANOMALY>261.8177</MEAN_ANOMALY></meanElements><tleParameters><EPHEMERIS_TYPE>0</EPHEMERIS_TYPE><CLASSIFICATION_TYPE>U</CLASSIFICATION_TYPE><NORAD_CAT_ID>56730</NORAD_CAT_ID><ELEMENT_SET_NO>999</ELEMENT_SET_NO><REV_AT_EPOCH>6137</REV_AT_EPOCH><BSTAR>.2386E-3</BSTAR><MEAN_MOTION_DOT>.1838E-4</MEAN_MOTION_DOT><MEAN_MOTION_DDOT>0</MEAN_MOTION_DDOT></tleParameters></data></segment></body></omm>
</ndm>
